NORAD_CAT_ID,OBJECT_NAME,OBJECT_TYPE,EPOCH,MEAN_MOTION,ECCENTRICITY,INCLINATION,RA_OF_ASC_NODE,ARG_OF_PERICENTER,MEAN_ANOMALY,BSTAR,MEAN_MOTION_DOT,MEAN_MOTION_DDOT,TLE_LINE0,TLE_LINE1,TLE_LINE2,SEMIMAJOR_AXIS,PERIOD,APOGEE,PERIGEE,DECAYED
53635.0,STARLINK-4587,PAYLOAD,2023-05-28 03:41:10,15.08840505,0.0001385,53.2159,107.4722,78.2261,281.8887,2.8719e-05,1.69e-06,0.0,0 STARLINK-4587,1 53635U 22104AZ  23148.15359899  .00000169  00000-0  28719-4 0  9995,2 53635  53.2159 107.4722 0001385  78.2261 281.8887 15.08840505 42762,6917.879,95.438,540.702,538.786,0.0
53635.0,STARLINK-4587,PAYLOAD,2023-05-28 21:10:25,15.08840367,0.0001411,53.2161,104.2014,78.972,281.143,1.3423e-05,-7.4e-07,0.0,0 STARLINK-4587,1 53635U 22104AZ  23148.88223941 -.00000074  00000-0  13423-4 0  9995,2 53635  53.2161 104.2014 0001411  78.9720 281.1430 15.08840367 42876,6917.879,95.438,540.72,538.768,0.0
53635.0,STARLINK-4587,PAYLOAD,2023-05-29 03:31:57,15.08840663,0.0001408,53.2164,103.0115,81.3196,278.7955,1.7322e-05,-1.2e-07,0.0,0 STARLINK-4587,1 53635U 22104AZ  23149.14719876 -.00000012  00000-0  17322-4 0  9996,2 53635  53.2164 103.0115 0001408  81.3196 278.7955 15.08840663 41893,6917.878,95.438,540.717,538.769,0.0
53635.0,STARLINK-4587,PAYLOAD,2023-05-29 06:42:44,15.0884038,0.0001411,53.2164,102.4167,81.5148,278.6004,1.517e-05,-4.7e-07,0.0,0 STARLINK-4587,1 53635U 22104AZ  23149.27967883 -.00000047  00000-0  15170-4 0  9990,2 53635  53.2164 102.4167 0001411  81.5148 278.6004 15.08840380 42932,6917.879,95.438,540.72,538.768,0.0
53635.0,STARLINK-4587,PAYLOAD,2023-05-30 03:22:45,15.08837528,0.0001426,53.2165,98.5507,82.7218,277.3936,-7.2729e-06,-4.04e-06,0.0,0 STARLINK-4587,1 53635U 22104AZ  23150.14080190 -.00000404  00000-0 -72729-5 0  9997,2 53635  53.2165  98.5507 0001426  82.7218 277.3936 15.08837528 43068,6917.888,95.438,540.739,538.766,0.0
53635.0,STARLINK-4587,PAYLOAD,2023-05-30 20:51:59,15.08836431,0.0001412,53.2166,95.2797,82.3007,277.8146,1.5175e-06,-2.64e-06,0.0,0 STARLINK-4587,1 53635U 22104AZ  23150.86944331 -.00000264  00000-0  15175-5 0  9997,2 53635  53.2166  95.2797 0001412  82.3007 277.8146 15.08836431 43173,6917.891,95.438,540.733,538.779,0.0
53635.0,STARLINK-4587,PAYLOAD,2023-05-31 03:13:32,15.0883782,0.0001412,53.2166,94.0904,82.1117,278.0035,1.4895e-05,-5.1e-07,0.0,0 STARLINK-4587,1 53635U 22104AZ  23151.13440244 -.00000051  00000-0  14895-4 0  9993,2 53635  53.2166  94.0904 0001412  82.1117 278.0035 15.08837820 43218,6917.887,95.438,540.729,538.775,0.0
53635.0,STARLINK-4587,PAYLOAD,2023-05-31 20:42:47,15.0883347,0.0001407,53.2166,90.8201,82.9573,277.1579,1.1688e-05,-1.02e-06,0.0,0 STARLINK-4587,1 53635U 22104AZ  23151.86304729 -.00000102  00000-0  11688-4 0  9994,2 53635  53.2166  90.8201 0001407  82.9573 277.1579 15.08833470 43322,6917.9,95.438,540.739,538.792,0.0
53635.0,STARLINK-4587,PAYLOAD,2023-06-01 03:04:19,15.08834249,0.0001414,53.2166,89.6308,83.1131,277.0022,1.6648e-05,-2.3e-07,0.0,0 STARLINK-4587,1 53635U 22104AZ  23152.12800754 -.00000023  00000-0  16648-4 0  9996,2 53635  53.2166  89.6308 0001414  83.1131 277.0022 15.08834249 42345,6917.898,95.438,540.741,538.785,0.0
53635.0,STARLINK-4587,PAYLOAD,2023-06-01 04:39:42,15.0883498,0.0001429,53.2166,89.3333,83.0214,277.0941,2.1434e-05,5.3e-07,0.0,0 STARLINK-4587,1 53635U 22104AZ  23152.19424719  .00000053  00000-0  21434-4 0  9997,2 53635  53.2166  89.3333 0001429  83.0214 277.0941 15.08834980 43373,6917.896,95.438,540.749,538.772,0.0
53635.0,STARLINK-4587,PAYLOAD,2023-06-02 06:05:53,15.08839569,0.0001448,53.2167,84.5755,84.1022,276.0135,3.939e-05,3.39e-06,0.0,0 STARLINK-4587,1 53635U 22104AZ  23153.25408580  .00000339  00000-0  39390-4 0  9990,2 53635  53.2167  84.5755 0001448  84.1022 276.0135 15.08839569 42516,6917.882,95.438,540.748,538.745,0.0
53635.0,STARLINK-4587,PAYLOAD,2023-06-03 04:21:17,15.0883692,0.000147,53.2168,80.4122,87.1672,272.9488,2.9073e-05,1.75e-06,0.0,0 STARLINK-4587,1 53635U 22104AZ  23154.18144978  .00000175  00000-0  29073-4 0  9996,2 53635  53.2168  80.4122 0001470  87.1672 272.9488 15.08836920 43671,6917.89,95.438,540.772,538.738,0.0
53635.0,STARLINK-4587,PAYLOAD,2023-06-04 04:12:03,15.08842582,0.0001466,53.2173,75.9512,91.2073,268.9087,4.0277e-05,3.53e-06,0.0,0 STARLINK-4587,1 53635U 22104AZ  23155.17504550  .00000353  00000-0  40277-4 0  9999,2 53635  53.2173  75.9512 0001466  91.2073 268.9087 15.08842582 43823,6917.872,95.437,540.752,538.723,0.0
53635.0,STARLINK-4587,PAYLOAD,2023-06-04 18:30:32,15.0883558,0.0001511,53.2175,73.2761,89.9593,270.1573,1.0172e-05,-1.26e-06,0.0,0 STARLINK-4587,1 53635U 22104AZ  23155.77121122 -.00000126  00000-0  10172-4 0  9995,2 53635  53.2175  73.2761 0001511  89.9593 270.1573 15.08835580 42895,6917.894,95.438,540.804,538.714,0.0
53635.0,STARLINK-4587,PAYLOAD,2023-06-05 11:59:47,15.08838082,0.0001493,53.2174,70.0043,89.2839,270.8324,1.4639e-05,-5.5e-07,0.0,0 STARLINK-4587,1 53635U 22104AZ  23156.49985061 -.00000055  00000-0  14639-4 0  9998,2 53635  53.2174  70.0043 0001493  89.2839 270.8324 15.08838082 44025,6917.886,95.438,540.784,538.718,0.0
53635.0,STARLINK-4587,PAYLOAD,2023-06-05 18:21:19,15.08840874,0.0001464,53.2173,68.8145,89.0026,271.1134,7.3809e-06,-1.7e-06,0.0,0 STARLINK-4587,1 53635U 22104AZ  23156.76480900 -.00000170  00000-0  73809-5 0  9993,2 53635  53.2173  68.8145 0001464  89.0026 271.1134 15.08840874 44065,6917.878,95.437,540.755,538.73,0.0
53635.0,STARLINK-4587,PAYLOAD,2023-06-06 00:42:51,15.0884208,0.0001479,53.2174,67.6251,89.2926,270.8235,1.8235e-05,2e-08,0.0,0 STARLINK-4587,1 53635U 22104AZ  23157.02976754  .00000002  00000-0  18235-4 0  9994,2 53635  53.2174  67.6251 0001479  89.2926 270.8235 15.08842080 43088,6917.874,95.437,540.762,538.716,0.0
53635.0,STARLINK-4587,PAYLOAD,2023-06-06 03:53:38,15.08842536,0.0001485,53.2175,67.0304,89.2298,270.8864,2.2157e-05,6.5e-07,0.0,0 STARLINK-4587,1 53635U 22104AZ  23157.16224697  .00000065  00000-0  22157-4 0  9998,2 53635  53.2175  67.0304 0001485  89.2298 270.8864 15.08842536 44121,6917.873,95.437,540.765,538.71,0.0
53635.0,STARLINK-4587,PAYLOAD,2023-06-06 18:12:06,15.08835055,0.0001493,53.2176,64.3542,87.9979,272.1184,1.6738e-05,-2.2e-07,0.0,0 STARLINK-4587,1 53635U 22104AZ  23157.75841229 -.00000022  00000-0  16738-4 0  9991,2 53635  53.2176  64.3542 0001493  87.9979 272.1184 15.08835055 43190,6917.896,95.438,540.793,538.728,0.0
53635.0,STARLINK-4587,PAYLOAD,2023-06-07 03:44:25,15.08840878,0.0001526,53.2179,62.5699,88.8516,271.2651,5.7571e-05,6.28e-06,0.0,0 STARLINK-4587,1 53635U 22104AZ  23158.15584783  .00000628  00000-0  57571-4 0  9996,2 53635  53.2179  62.5699 0001526  88.8516 271.2651 15.08840878 43255,6917.878,95.437,540.798,538.687,0.0
53635.0,STARLINK-4587,PAYLOAD,2023-06-07 21:13:40,15.08831364,0.0001604,53.2185,59.2984,90.8515,269.2661,-6.1411e-05,-1.265e-05,0.0,0 STARLINK-4587,1 53635U 22104AZ  23158.88449991 -.00001265  00000-0 -61411-4 0  9995,2 53635  53.2185  59.2984 0001604  90.8515 269.2661 15.08831364 44384,6917.907,95.438,540.881,538.662,0.0
53635.0,STARLINK-4587,PAYLOAD,2023-06-08 00:24:26,15.08838377,0.0001482,53.2178,58.7049,92.9306,267.1856,-1.913e-06,-3.18e-06,0.0,0 STARLINK-4587,1 53635U 22104AZ  23159.01697372 -.00000318  00000-0 -19130-5 0  9999,2 53635  53.2178  58.7049 0001482  92.9306 267.1856 15.08838377 43380,6917.885,95.438,540.776,538.725,0.0
53635.0,STARLINK-4587,PAYLOAD,2023-06-09 01:50:36,15.08841939,0.0001414,53.2174,53.9471,91.7238,268.3916,5.7812e-05,6.32e-06,0.0,0 STARLINK-4587,1 53635U 22104AZ  23160.07681181  .00000632  00000-0  57812-4 0  9993,2 53635  53.2174  53.9471 0001414  91.7238 268.3916 15.08841939 43544,6917.874,95.437,540.718,538.761,0.0
53635.0,STARLINK-4587,PAYLOAD,2023-06-09 09:47:32,15.08837794,0.0001418,53.2173,52.4605,90.8654,269.2501,-6.8793e-06,-3.97e-06,0.0,0 STARLINK-4587,1 53635U 22104AZ  23160.40801800 -.00000397  00000-0 -68793-5 0  9993,2 53635  53.2173  52.4605 0001418  90.8654 269.2501 15.08837794 43591,6917.887,95.438,540.733,538.771,0.0
53635.0,STARLINK-4587,PAYLOAD,2023-06-10 09:38:19,15.08839088,0.0001382,53.2181,48.0,87.9125,272.2025,4.0059e-05,3.5e-06,0.0,0 STARLINK-4587,1 53635U 22104AZ  23161.40161792  .00000350  00000-0  40059-4 0  9994,2 53635  53.2181  48.0000 0001382  87.9125 272.2025 15.08839088 44763,6917.883,95.438,540.704,538.792,0.0
53635.0,STARLINK-4587,PAYLOAD,2023-06-10 15:59:52,15.08833386,0.0001548,53.2181,46.81,91.2755,268.8414,0.0001225,1.662e-05,0.0,0 STARLINK-4587,1 53635U 22104AZ  23161.66657791  .00001662  00000-0  12250-3 0  9999,2 53635  53.2181  46.8100 0001548  91.2755 268.8414 15.08833386 43780,6917.901,95.438,540.836,538.695,0.0
53635.0,STARLINK-4587,PAYLOAD,2023-06-10 22:21:24,15.08834173,0.0001615,53.218,45.6211,92.6534,267.4643,0.00018661,2.683e-05,0.0,0 STARLINK-4587,1 53635U 22104AZ  23161.93153571  .00002683  00000-0  18661-3 0  9992,2 53635  53.2180  45.6211 0001615  92.6534 267.4643 15.08834173 44846,6917.898,95.438,540.88,538.646,0.0
53635.0,STARLINK-4587,PAYLOAD,2023-06-11 09:29:06,15.08843762,0.0001263,53.2181,43.5404,85.5369,274.5768,1.1845e-05,-9.9e-07,0.0,0 STARLINK-4587,1 53635U 22104AZ  23162.39521463 -.00000099  00000-0  11845-4 0  9990,2 53635  53.2181  43.5404 0001263  85.5369 274.5768 15.08843762 44913,6917.869,95.437,540.608,538.86,0.0
53635.0,STARLINK-4587,PAYLOAD,2023-06-11 22:12:11,15.08835594,0.0001189,53.2182,41.1608,87.6063,272.5065,5.3906e-05,5.7e-06,0.0,0 STARLINK-4587,1 53635U 22104AZ  23162.92513864  .00000570  00000-0  53906-4 0  9992,2 53635  53.2182  41.1608 0001189  87.6063 272.5065 15.08835594 44995,6917.894,95.438,540.581,538.936,0.0
53635.0,STARLINK-4587,PAYLOAD,2023-06-12 09:19:53,15.08841699,0.0001236,53.2181,39.0793,88.8394,271.274,1.2026e-05,-9.6e-07,0.0,0 STARLINK-4587,1 53635U 22104AZ  23163.38881582 -.00000096  00000-0  12026-4 0  9990,2 53635  53.2181  39.0793 0001236  88.8394 271.2740 15.08841699 45066,6917.875,95.437,540.595,538.885,0.0
